[{"OBJECT_NAME":"ONEWEB-0056","OBJECT_ID":"2020-008AE","EPOCH":"2026-05-12T05:54:12.565728","MEAN_MOTION":13.10843919,"ECCENTRICITY":0.0001606,"INCLINATION":87.8862,"RA_OF_ASC_NODE":43.4131,"ARG_OF_PERICENTER":82.5332,"MEAN_ANOMALY":277.5978,"EPHEMERIS_TYPE":0,"CLASSIFICATION_TYPE":"U","NORAD_CAT_ID":45159,"ELEMENT_SET_NO":999,"REV_AT_EPOCH":30347,"BSTAR":-0.0013831,"MEAN_MOTION_DOT":-4.73e-06,"MEAN_MOTION_DDOT":0.0},{"OBJECT_NAME":"ONEWEB-0057","OBJECT_ID":"2020-008AF","EPOCH":"2026-05-12T06:13:47.279136","MEAN_MOTION":13.1037633,"ECCENTRICITY":0.0002276,"INCLINATION":87.8862,"RA_OF_ASC_NODE":43.4221,"ARG_OF_PERICENTER":87.5361,"MEAN_ANOMALY":272.6027,"EPHEMERIS_TYPE":0,"CLASSIFICATION_TYPE":"U","NORAD_CAT_ID":45160,"ELEMENT_SET_NO":999,"REV_AT_EPOCH":30364,"BSTAR":7.6439e-05,"MEAN_MOTION_DOT":3.9e-07,"MEAN_MOTION_DDOT":0.0},{"OBJECT_NAME":"ONEWEB-0058","OBJECT_ID":"2020-008AG","EPOCH":"2026-05-12T05:54:38.573856","MEAN_MOTION":13.103737,"ECCENTRICITY":0.000189,"INCLINATION":87.886,"RA_OF_ASC_NODE":43.4323,"ARG_OF_PERICENTER":71.2881,"MEAN_ANOMALY":288.8451,"EPHEMERIS_TYPE":0,"CLASSIFICATION_TYPE":"U","NORAD_CAT_ID":45161,"ELEMENT_SET_NO":999,"REV_AT_EPOCH":30371,"BSTAR":-0.0016999,"MEAN_MOTION_DOT":-5.81e-06,"MEAN_MOTION_DDOT":0.0},{"OBJECT_NAME":"ONEWEB-0059","OBJECT_ID":"2020-008AH","EPOCH":"2026-05-12T05:49:40.353024","MEAN_MOTION":13.1037458,"ECCENTRICITY":0.0002041,"INCLINATION":87.8855,"RA_OF_ASC_NODE":43.4316,"ARG_OF_PERICENTER":75.0265,"MEAN_ANOMALY":285.1088,"EPHEMERIS_TYPE":0,"CLASSIFICATION_TYPE":"U","NORAD_CAT_ID":45162,"ELEMENT_SET_NO":999,"REV_AT_EPOCH":30361,"BSTAR":-0.001785,"MEAN_MOTION_DOT":-6.1e-06,"MEAN_MOTION_DDOT":0.0},{"OBJECT_NAME":"ONEWEB-0062","OBJECT_ID":"2020-008AJ","EPOCH":"2026-05-12T06:22:56.652672","MEAN_MOTION":13.1037539,"ECCENTRICITY":0.000169,"INCLINATION":87.8865,"RA_OF_ASC_NODE":43.4124,"ARG_OF_PERICENTER":65.3654,"MEAN_ANOMALY":294.7649,"EPHEMERIS_TYPE":0,"CLASSIFICATION_TYPE":"U","NORAD_CAT_ID":45163,"ELEMENT_SET_NO":999,"REV_AT_EPOCH":30348,"BSTAR":0.00085907,"MEAN_MOTION_DOT":3.13e-06,"MEAN_MOTION_DDOT":0.0},{"OBJECT_NAME":"ONEWEB-0065","OBJECT_ID":"2020-008AK","EPOCH":"2026-05-12T05:20:47.747904","MEAN_MOTION":13.10369427,"ECCENTRICITY":0.0001935,"INCLINATION":87.8856,"RA_OF_ASC_NODE":43.4293,"ARG_OF_PERICENTER":89.9463,"MEAN_ANOMALY":270.1886,"EPHEMERIS_TYPE":0,"CLASSIFICATION_TYPE":"U","NORAD_CAT_ID":45164,"ELEMENT_SET_NO":999,"REV_AT_EPOCH":30317,"BSTAR":3.5385e-05,"MEAN_MOTION_DOT":2.5e-07,"MEAN_MOTION_DDOT":0.0},{"OBJECT_NAME":"ONEWEB-0066","OBJECT_ID":"2020-020A","EPOCH":"2026-05-12T05:03:42.242112","MEAN_MOTION":13.1142021,"ECCENTRICITY":0.0001946,"INCLINATION":87.8926,"RA_OF_ASC_NODE":28.2259,"ARG_OF_PERICENTER":76.4916,"MEAN_ANOMALY":283.6429,"EPHEMERIS_TYPE":0,"CLASSIFICATION_TYPE":"U","NORAD_CAT_ID":45424,"ELEMENT_SET_NO":999,"REV_AT_EPOCH":29796,"BSTAR":-0.00094139,"MEAN_MOTION_DOT":-3.21e-06,"MEAN_MOTION_DDOT":0.0},{"OBJECT_NAME":"ONEWEB-0067","OBJECT_ID":"2020-020B","EPOCH":"2026-05-12T05:58:31.318176","MEAN_MOTION":13.11420829,"ECCENTRICITY":0.0001943,"INCLINATION":87.8939,"RA_OF_ASC_NODE":28.1344,"ARG_OF_PERICENTER":86.3709,"MEAN_ANOMALY":273.7641,"EPHEMERIS_TYPE":0,"CLASSIFICATION_TYPE":"U","NORAD_CAT_ID":45425,"ELEMENT_SET_NO":999,"REV_AT_EPOCH":29802,"BSTAR":0.00096375,"MEAN_MOTION_DOT":3.54e-06,"MEAN_MOTION_DDOT":0.0},{"OBJECT_NAME":"ONEWEB-0080","OBJECT_ID":"2020-020C","EPOCH":"2026-05-12T05:57:38.408544","MEAN_MOTION":13.11416456,"ECCENTRICITY":0.000165,"INCLINATION":87.8929,"RA_OF_ASC_NODE":28.2121,"ARG_OF_PERICENTER":70.5275,"MEAN_ANOMALY":289.6032,"EPHEMERIS_TYPE":0,"CLASSIFICATION_TYPE":"U","NORAD_CAT_ID":45426,"ELEMENT_SET_NO":999,"REV_AT_EPOCH":29799,"BSTAR":0.0010410999999999999,"MEAN_MOTION_DOT":3.82e-06,"MEAN_MOTION_DDOT":0.0},{"OBJECT_NAME":"ONEWEB-0090","OBJECT_ID":"2020-020D","EPOCH":"2026-05-12T06:39:06.857280","MEAN_MOTION":13.11415842,"ECCENTRICITY":0.0001746,"INCLINATION":87.8931,"RA_OF_ASC_NODE":28.2114,"ARG_OF_PERICENTER":78.3386,"MEAN_ANOMALY":281.7938,"EPHEMERIS_TYPE":0,"CLASSIFICATION_TYPE":"U","NORAD_CAT_ID":45427,"ELEMENT_SET_NO":999,"REV_AT_EPOCH":29796,"BSTAR":-0.0016338,"MEAN_MOTION_DOT":-5.66e-06,"MEAN_MOTION_DDOT":0.0},{"OBJECT_NAME":"ONEWEB-0061","OBJECT_ID":"2020-020E","EPOCH":"2026-05-12T05:35:15.579744","MEAN_MOTION":13.11419746,"ECCENTRICITY":0.000182,"INCLINATION":87.8928,"RA_OF_ASC_NODE":28.2053,"ARG_OF_PERICENTER":78.2682,"MEAN_ANOMALY":281.865,"EPHEMERIS_TYPE":0,"CLASSIFICATION_TYPE":"U","NORAD_CAT_ID":45428,"ELEMENT_SET_NO":999,"REV_AT_EPOCH":29791,"BSTAR":0.0016557,"MEAN_MOTION_DOT":6e-06,"MEAN_MOTION_DDOT":0.0},{"OBJECT_NAME":"ONEWEB-0081","OBJECT_ID":"2020-020F","EPOCH":"2026-05-12T05:08:35.726496","MEAN_MOTION":13.11418942,"ECCENTRICITY":0.0001994,"INCLINATION":87.8925,"RA_OF_ASC_NODE":28.2208,"ARG_OF_PERICENTER":80.3504,"MEAN_ANOMALY":279.7849,"EPHEMERIS_TYPE":0,"CLASSIFICATION_TYPE":"U","NORAD_CAT_ID":45429,"ELEMENT_SET_NO":999,"REV_AT_EPOCH":29802,"BSTAR":-0.00030930000000000004,"MEAN_MOTION_DOT":-9.7e-07,"MEAN_MOTION_DDOT":0.0},{"OBJECT_NAME":"ONEWEB-0069","OBJECT_ID":"2020-020G","EPOCH":"2026-05-12T03:12:53.024256","MEAN_MOTION":13.10861325,"ECCENTRICITY":0.0001881,"INCLINATION":87.8928,"RA_OF_ASC_NODE":28.2366,"ARG_OF_PERICENTER":80.2133,"MEAN_ANOMALY":279.9207,"EPHEMERIS_TYPE":0,"CLASSIFICATION_TYPE":"U","NORAD_CAT_ID":45430,"ELEMENT_SET_NO":999,"REV_AT_EPOCH":29794,"BSTAR":-0.0008382,"MEAN_MOTION_DOT":-2.82e-06,"MEAN_MOTION_DDOT":0.0},{"OBJECT_NAME":"ONEWEB-0031","OBJECT_ID":"2020-020H","EPOCH":"2026-05-12T06:02:18.368736","MEAN_MOTION":13.11413842,"ECCENTRICITY":0.0001702,"INCLINATION":87.8915,"RA_OF_ASC_NODE":28.2236,"ARG_OF_PERICENTER":75.3713,"MEAN_ANOMALY":284.7604,"EPHEMERIS_TYPE":0,"CLASSIFICATION_TYPE":"U","NORAD_CAT_ID":45431,"ELEMENT_SET_NO":999,"REV_AT_EPOCH":29794,"BSTAR":0.0005981199999999999,"MEAN_MOTION_DOT":2.25e-06,"MEAN_MOTION_DDOT":0.0},{"OBJECT_NAME":"ONEWEB-0027","OBJECT_ID":"2020-020J","EPOCH":"2026-05-12T02:01:24.703680","MEAN_MOTION":13.17650584,"ECCENTRICITY":0.0001423,"INCLINATION":87.9177,"RA_OF_ASC_NODE":13.0247,"ARG_OF_PERICENTER":83.5481,"MEAN_ANOMALY":276.5812,"EPHEMERIS_TYPE":0,"CLASSIFICATION_TYPE":"U","NORAD_CAT_ID":45432,"ELEMENT_SET_NO":999,"REV_AT_EPOCH":30160,"BSTAR":-2.8967e-05,"MEAN_MOTION_DOT":2e-08,"MEAN_MOTION_DDOT":0.0},{"OBJECT_NAME":"ONEWEB-0064","OBJECT_ID":"2020-020K","EPOCH":"2026-05-12T05:59:52.476288","MEAN_MOTION":13.11414135,"ECCENTRICITY":0.0001605,"INCLINATION":87.8917,"RA_OF_ASC_NODE":28.2144,"ARG_OF_PERICENTER":77.6972,"MEAN_ANOMALY":282.4336,"EPHEMERIS_TYPE":0,"CLASSIFICATION_TYPE":"U","NORAD_CAT_ID":45433,"ELEMENT_SET_NO":999,"REV_AT_EPOCH":29797,"BSTAR":0.00085572,"MEAN_MOTION_DOT":3.16e-06,"MEAN_MOTION_DDOT":0.0}]