ONEWEB-0056             
1 45159U 20008AE  26132.24597877 -.00000473  00000+0 -13831-2 0  9990
2 45159  87.8862  43.4131 0001606  82.5332 277.5978 13.10843919303478
ONEWEB-0057             
1 45160U 20008AF  26132.25957499  .00000039  00000+0  76439-4 0  9994
2 45160  87.8862  43.4221 0002276  87.5361 272.6027 13.10376330303649
ONEWEB-0058             
1 45161U 20008AG  26132.24627979 -.00000581  00000+0 -16999-2 0  9998
2 45161  87.8860  43.4323 0001890  71.2881 288.8451 13.10373700303715
ONEWEB-0059             
1 45162U 20008AH  26132.24282816 -.00000610  00000+0 -17850-2 0  9996
2 45162  87.8855  43.4316 0002041  75.0265 285.1088 13.10374580303611
ONEWEB-0062             
1 45163U 20008AJ  26132.26593348  .00000313  00000+0  85907-3 0  9991
2 45163  87.8865  43.4124 0001690  65.3654 294.7649 13.10375390303487
ONEWEB-0065             
1 45164U 20008AK  26132.22277486  .00000025  00000+0  35385-4 0  9996
2 45164  87.8856  43.4293 0001935  89.9463 270.1886 13.10369427303178
ONEWEB-0066             
1 45424U 20020A   26132.21090558 -.00000321  00000+0 -94139-3 0  9993
2 45424  87.8926  28.2259 0001946  76.4916 283.6429 13.11420210297964
ONEWEB-0067             
1 45425U 20020B   26132.24897359  .00000354  00000+0  96375-3 0  9999
2 45425  87.8939  28.1344 0001943  86.3709 273.7641 13.11420829298020
ONEWEB-0080             
1 45426U 20020C   26132.24836121  .00000382  00000+0  10411-2 0  9997
2 45426  87.8929  28.2121 0001650  70.5275 289.6032 13.11416456297998
ONEWEB-0090             
1 45427U 20020D   26132.27716270 -.00000566  00000+0 -16338-2 0  9993
2 45427  87.8931  28.2114 0001746  78.3386 281.7938 13.11415842297962
ONEWEB-0061             
1 45428U 20020E   26132.23281921  .00000600  00000+0  16557-2 0  9990
2 45428  87.8928  28.2053 0001820  78.2682 281.8650 13.11419746297916
ONEWEB-0081             
1 45429U 20020F   26132.21430239 -.00000097  00000+0 -30930-3 0  9991
2 45429  87.8925  28.2208 0001994  80.3504 279.7849 13.11418942298021
ONEWEB-0069             
1 45430U 20020G   26132.13394704 -.00000282  00000+0 -83820-3 0  9992
2 45430  87.8928  28.2366 0001881  80.2133 279.9207 13.10861325297949
ONEWEB-0031             
1 45431U 20020H   26132.25160149  .00000225  00000+0  59812-3 0  9999
2 45431  87.8915  28.2236 0001702  75.3713 284.7604 13.11413842297946
ONEWEB-0027             
1 45432U 20020J   26132.08431370  .00000002  00000+0 -28967-4 0  9990
2 45432  87.9177  13.0247 0001423  83.5481 276.5812 13.17650584301606
ONEWEB-0064             
1 45433U 20020K   26132.24991292  .00000316  00000+0  85572-3 0  9994
2 45433  87.8917  28.2144 0001605  77.6972 282.4336 13.11414135297978
